QIANFAN-1               
1 60379U 24140A   26065.82917188  .00000100  00000+0  13634-3 0  9999
2 60379  88.9714 290.5826 0016976 337.9329  22.1089 13.50999750 78703
QIANFAN-2               
1 60380U 24140B   26065.78383262  .00000087  00000+0  11629-3 0  9992
2 60380  88.9700 290.4150 0011511 310.7539  49.2612 13.51003843 78758
QIANFAN-3               
1 60381U 24140C   26065.79199610  .00000102  00000+0  13991-3 0  9998
2 60381  88.9693 290.5404 0012972 323.7557  36.2714 13.50999831 78668
QIANFAN-4               
1 60382U 24140D   26065.84147681  .00000097  00000+0  13153-3 0  9999
2 60382  88.9717 290.4542 0011806 313.3242  46.6924 13.51000207 78792
QIANFAN-5               
1 60383U 24140E   26065.81681120  .00000089  00000+0  11873-3 0  9996
2 60383  88.9692 290.5631 0014565 334.8768  25.1673 13.51002135 78651
QIANFAN-6               
1 60384U 24140F   26065.83738920  .00000100  00000+0  13601-3 0  9995
2 60384  88.9719 290.3298 0012066 319.7011  40.3244 13.51001980 78858
QIANFAN-7               
1 60385U 24140G   26065.84857391  .00000396  00000+0  15408-3 0  9995
2 60385  88.9731 283.8440 0016710 119.5491 240.7371 14.27773275 82395
QIANFAN-8               
1 60386U 24140H   26065.84560562  .00000094  00000+0  12775-3 0  9996
2 60386  88.9720 290.5677 0015569 320.5399  39.4617 13.51003487 78706
QIANFAN-9               
1 60387U 24140J   26065.82091701  .00000101  00000+0  13737-3 0  9997
2 60387  88.9719 290.6439 0015263 320.4339  39.5697 13.50998272 78686
QIANFAN-10              
1 60388U 24140K   26065.82491682  .00000098  00000+0  13276-3 0  9993
2 60388  88.9728 289.9987 0013192 296.3074  63.6721 13.50996666 78818
QIANFAN-11              
1 60389U 24140L   26065.78802166  .00000096  00000+0  12993-3 0  9995
2 60389  88.9654 290.5272 0013287 321.0460  38.9733 13.51003471 78465
QIANFAN-12              
1 60390U 24140M   26065.80860032  .00000092  00000+0  12359-3 0  9998
2 60390  88.9697 290.6051 0012359 330.3239  29.7209 13.51001167 78596
QIANFAN-13              
1 60391U 24140N   26065.85383412  .00000087  00000+0  11548-3 0  9999
2 60391  88.9710 290.7106 0012252 333.1441  26.9074 13.51001608 78626
QIANFAN-14              
1 60392U 24140P   26065.80438963  .00000108  00000+0  14921-3 0  9999
2 60392  88.9688 290.5955 0015923 331.3828  28.6448 13.51001494 78625
QIANFAN-15              
1 60393U 24140Q   26065.81276715  .00000089  00000+0  11966-3 0  9990
2 60393  88.9711 290.5711 0011335 318.8000  41.2294 13.50999315 78614
QIANFAN-16              
1 60394U 24140R   26065.80026399  .00000109  00000+0  15060-3 0  9993
2 60394  88.9715 290.6950 0013985 336.3694  23.6813 13.50997978 78526
QIANFAN-17              
1 60395U 24140S   26065.79625161  .00000099  00000+0  13541-3 0  9994
2 60395  88.9726 290.7506 0014182 329.5800  30.4527 13.51004642 79482
