[{"OBJECT_NAME":"QIANFAN-1","OBJECT_ID":"2024-140A","EPOCH":"2026-03-06T19:54:00.450432","MEAN_MOTION":13.5099975,"ECCENTRICITY":0.0016976,"INCLINATION":88.9714,"RA_OF_ASC_NODE":290.5826,"ARG_OF_PERICENTER":337.9329,"MEAN_ANOMALY":22.1089,"EPHEMERIS_TYPE":0,"CLASSIFICATION_TYPE":"U","NORAD_CAT_ID":60379,"ELEMENT_SET_NO":999,"REV_AT_EPOCH":7870,"BSTAR":0.00013634,"MEAN_MOTION_DOT":1.0e-6,"MEAN_MOTION_DDOT":0},{"OBJECT_NAME":"QIANFAN-2","OBJECT_ID":"2024-140B","EPOCH":"2026-03-06T18:48:43.138368","MEAN_MOTION":13.51003843,"ECCENTRICITY":0.0011511,"INCLINATION":88.97,"RA_OF_ASC_NODE":290.415,"ARG_OF_PERICENTER":310.7539,"MEAN_ANOMALY":49.2612,"EPHEMERIS_TYPE":0,"CLASSIFICATION_TYPE":"U","NORAD_CAT_ID":60380,"ELEMENT_SET_NO":999,"REV_AT_EPOCH":7875,"BSTAR":0.00011629,"MEAN_MOTION_DOT":8.7e-7,"MEAN_MOTION_DDOT":0},{"OBJECT_NAME":"QIANFAN-3","OBJECT_ID":"2024-140C","EPOCH":"2026-03-06T19:00:28.463040","MEAN_MOTION":13.50999831,"ECCENTRICITY":0.0012972,"INCLINATION":88.9693,"RA_OF_ASC_NODE":290.5404,"ARG_OF_PERICENTER":323.7557,"MEAN_ANOMALY":36.2714,"EPHEMERIS_TYPE":0,"CLASSIFICATION_TYPE":"U","NORAD_CAT_ID":60381,"ELEMENT_SET_NO":999,"REV_AT_EPOCH":7866,"BSTAR":0.00013991,"MEAN_MOTION_DOT":1.02e-6,"MEAN_MOTION_DDOT":0},{"OBJECT_NAME":"QIANFAN-4","OBJECT_ID":"2024-140D","EPOCH":"2026-03-06T20:11:43.596384","MEAN_MOTION":13.51000207,"ECCENTRICITY":0.0011806,"INCLINATION":88.9717,"RA_OF_ASC_NODE":290.4542,"ARG_OF_PERICENTER":313.3242,"MEAN_ANOMALY":46.6924,"EPHEMERIS_TYPE":0,"CLASSIFICATION_TYPE":"U","NORAD_CAT_ID":60382,"ELEMENT_SET_NO":999,"REV_AT_EPOCH":7879,"BSTAR":0.00013153,"MEAN_MOTION_DOT":9.7e-7,"MEAN_MOTION_DDOT":0},{"OBJECT_NAME":"QIANFAN-5","OBJECT_ID":"2024-140E","EPOCH":"2026-03-06T19:36:12.487680","MEAN_MOTION":13.51002135,"ECCENTRICITY":0.0014565,"INCLINATION":88.9692,"RA_OF_ASC_NODE":290.5631,"ARG_OF_PERICENTER":334.8768,"MEAN_ANOMALY":25.1673,"EPHEMERIS_TYPE":0,"CLASSIFICATION_TYPE":"U","NORAD_CAT_ID":60383,"ELEMENT_SET_NO":999,"REV_AT_EPOCH":7865,"BSTAR":0.00011873,"MEAN_MOTION_DOT":8.9e-7,"MEAN_MOTION_DDOT":0},{"OBJECT_NAME":"QIANFAN-6","OBJECT_ID":"2024-140F","EPOCH":"2026-03-06T20:05:50.426880","MEAN_MOTION":13.5100198,"ECCENTRICITY":0.0012066,"INCLINATION":88.9719,"RA_OF_ASC_NODE":290.3298,"ARG_OF_PERICENTER":319.7011,"MEAN_ANOMALY":40.3244,"EPHEMERIS_TYPE":0,"CLASSIFICATION_TYPE":"U","NORAD_CAT_ID":60384,"ELEMENT_SET_NO":999,"REV_AT_EPOCH":7885,"BSTAR":0.00013601,"MEAN_MOTION_DOT":1.0e-6,"MEAN_MOTION_DDOT":0},{"OBJECT_NAME":"QIANFAN-7","OBJECT_ID":"2024-140G","EPOCH":"2026-03-06T20:21:56.785824","MEAN_MOTION":14.27773275,"ECCENTRICITY":0.001671,"INCLINATION":88.9731,"RA_OF_ASC_NODE":283.844,"ARG_OF_PERICENTER":119.5491,"MEAN_ANOMALY":240.7371,"EPHEMERIS_TYPE":0,"CLASSIFICATION_TYPE":"U","NORAD_CAT_ID":60385,"ELEMENT_SET_NO":999,"REV_AT_EPOCH":8239,"BSTAR":0.00015408,"MEAN_MOTION_DOT":3.96e-6,"MEAN_MOTION_DDOT":0},{"OBJECT_NAME":"QIANFAN-8","OBJECT_ID":"2024-140H","EPOCH":"2026-03-06T20:17:40.325568","MEAN_MOTION":13.51003487,"ECCENTRICITY":0.0015569,"INCLINATION":88.972,"RA_OF_ASC_NODE":290.5677,"ARG_OF_PERICENTER":320.5399,"MEAN_ANOMALY":39.4617,"EPHEMERIS_TYPE":0,"CLASSIFICATION_TYPE":"U","NORAD_CAT_ID":60386,"ELEMENT_SET_NO":999,"REV_AT_EPOCH":7870,"BSTAR":0.00012775,"MEAN_MOTION_DOT":9.4e-7,"MEAN_MOTION_DDOT":0},{"OBJECT_NAME":"QIANFAN-9","OBJECT_ID":"2024-140J","EPOCH":"2026-03-06T19:42:07.229664","MEAN_MOTION":13.50998272,"ECCENTRICITY":0.0015263,"INCLINATION":88.9719,"RA_OF_ASC_NODE":290.6439,"ARG_OF_PERICENTER":320.4339,"MEAN_ANOMALY":39.5697,"EPHEMERIS_TYPE":0,"CLASSIFICATION_TYPE":"U","NORAD_CAT_ID":60387,"ELEMENT_SET_NO":999,"REV_AT_EPOCH":7868,"BSTAR":0.00013737,"MEAN_MOTION_DOT":1.01e-6,"MEAN_MOTION_DDOT":0},{"OBJECT_NAME":"QIANFAN-10","OBJECT_ID":"2024-140K","EPOCH":"2026-03-06T19:47:52.813248","MEAN_MOTION":13.50996666,"ECCENTRICITY":0.0013192,"INCLINATION":88.9728,"RA_OF_ASC_NODE":289.9987,"ARG_OF_PERICENTER":296.3074,"MEAN_ANOMALY":63.6721,"EPHEMERIS_TYPE":0,"CLASSIFICATION_TYPE":"U","NORAD_CAT_ID":60388,"ELEMENT_SET_NO":999,"REV_AT_EPOCH":7881,"BSTAR":0.00013276,"MEAN_MOTION_DOT":9.8e-7,"MEAN_MOTION_DDOT":0},{"OBJECT_NAME":"QIANFAN-11","OBJECT_ID":"2024-140L","EPOCH":"2026-03-06T18:54:45.071424","MEAN_MOTION":13.51003471,"ECCENTRICITY":0.0013287,"INCLINATION":88.9654,"RA_OF_ASC_NODE":290.5272,"ARG_OF_PERICENTER":321.046,"MEAN_ANOMALY":38.9733,"EPHEMERIS_TYPE":0,"CLASSIFICATION_TYPE":"U","NORAD_CAT_ID":60389,"ELEMENT_SET_NO":999,"REV_AT_EPOCH":7846,"BSTAR":0.00012993,"MEAN_MOTION_DOT":9.6e-7,"MEAN_MOTION_DDOT":0},{"OBJECT_NAME":"QIANFAN-12","OBJECT_ID":"2024-140M","EPOCH":"2026-03-06T19:24:23.067648","MEAN_MOTION":13.51001167,"ECCENTRICITY":0.0012359,"INCLINATION":88.9697,"RA_OF_ASC_NODE":290.6051,"ARG_OF_PERICENTER":330.3239,"MEAN_ANOMALY":29.7209,"EPHEMERIS_TYPE":0,"CLASSIFICATION_TYPE":"U","NORAD_CAT_ID":60390,"ELEMENT_SET_NO":999,"REV_AT_EPOCH":7859,"BSTAR":0.00012359,"MEAN_MOTION_DOT":9.2e-7,"MEAN_MOTION_DDOT":0},{"OBJECT_NAME":"QIANFAN-13","OBJECT_ID":"2024-140N","EPOCH":"2026-03-06T20:29:31.267968","MEAN_MOTION":13.51001608,"ECCENTRICITY":0.0012252,"INCLINATION":88.971,"RA_OF_ASC_NODE":290.7106,"ARG_OF_PERICENTER":333.1441,"MEAN_ANOMALY":26.9074,"EPHEMERIS_TYPE":0,"CLASSIFICATION_TYPE":"U","NORAD_CAT_ID":60391,"ELEMENT_SET_NO":999,"REV_AT_EPOCH":7862,"BSTAR":0.00011548,"MEAN_MOTION_DOT":8.7e-7,"MEAN_MOTION_DDOT":0},{"OBJECT_NAME":"QIANFAN-14","OBJECT_ID":"2024-140P","EPOCH":"2026-03-06T19:18:19.264032","MEAN_MOTION":13.51001494,"ECCENTRICITY":0.0015923,"INCLINATION":88.9688,"RA_OF_ASC_NODE":290.5955,"ARG_OF_PERICENTER":331.3828,"MEAN_ANOMALY":28.6448,"EPHEMERIS_TYPE":0,"CLASSIFICATION_TYPE":"U","NORAD_CAT_ID":60392,"ELEMENT_SET_NO":999,"REV_AT_EPOCH":7862,"BSTAR":0.00014921,"MEAN_MOTION_DOT":1.08e-6,"MEAN_MOTION_DDOT":0},{"OBJECT_NAME":"QIANFAN-15","OBJECT_ID":"2024-140Q","EPOCH":"2026-03-06T19:30:23.081760","MEAN_MOTION":13.50999315,"ECCENTRICITY":0.0011335,"INCLINATION":88.9711,"RA_OF_ASC_NODE":290.5711,"ARG_OF_PERICENTER":318.8,"MEAN_ANOMALY":41.2294,"EPHEMERIS_TYPE":0,"CLASSIFICATION_TYPE":"U","NORAD_CAT_ID":60393,"ELEMENT_SET_NO":999,"REV_AT_EPOCH":7861,"BSTAR":0.00011966,"MEAN_MOTION_DOT":8.9e-7,"MEAN_MOTION_DDOT":0},{"OBJECT_NAME":"QIANFAN-16","OBJECT_ID":"2024-140R","EPOCH":"2026-03-06T19:12:22.808736","MEAN_MOTION":13.50997978,"ECCENTRICITY":0.0013985,"INCLINATION":88.9715,"RA_OF_ASC_NODE":290.695,"ARG_OF_PERICENTER":336.3694,"MEAN_ANOMALY":23.6813,"EPHEMERIS_TYPE":0,"CLASSIFICATION_TYPE":"U","NORAD_CAT_ID":60394,"ELEMENT_SET_NO":999,"REV_AT_EPOCH":7852,"BSTAR":0.0001506,"MEAN_MOTION_DOT":1.09e-6,"MEAN_MOTION_DDOT":0},{"OBJECT_NAME":"QIANFAN-17","OBJECT_ID":"2024-140S","EPOCH":"2026-03-06T19:06:36.139104","MEAN_MOTION":13.51004642,"ECCENTRICITY":0.0014182,"INCLINATION":88.9726,"RA_OF_ASC_NODE":290.7506,"ARG_OF_PERICENTER":329.58,"MEAN_ANOMALY":30.4527,"EPHEMERIS_TYPE":0,"CLASSIFICATION_TYPE":"U","NORAD_CAT_ID":60395,"ELEMENT_SET_NO":999,"REV_AT_EPOCH":7948,"BSTAR":0.00013541,"MEAN_MOTION_DOT":9.9e-7,"MEAN_MOTION_DDOT":0}]
